OBJECT_NAME,OBJECT_ID,EPOCH,MEAN_MOTION,ECCENTRICITY,INCLINATION,RA_OF_ASC_NODE,ARG_OF_PERICENTER,MEAN_ANOMALY,EPHEMERIS_TYPE,CLASSIFICATION_TYPE,NORAD_CAT_ID,ELEMENT_SET_NO,REV_AT_EPOCH,BSTAR,MEAN_MOTION_DOT,MEAN_MOTION_DDOT
PROBA-1,2001-049B,2026-07-12T03:49:58.894752,15.07608627,.0055905,97.9608,202.5649,39.7466,320.7837,0,U,26958,999,34738,.12733E-3,.1936E-4,0
CUTE-1 (CO-55),2003-031E,2026-07-11T20:01:49.245600,14.24350218,.00107554,98.6741,201.0838,111.2957,248.9371,0,U,27844,999,19518,.88087823E-4,.16E-5,0
CUBESAT XI-IV (CO-57),2003-031J,2026-07-11T13:18:12.441888,14.23633286,.0010408,98.6772,200.4999,128.9651,231.2457,0,U,27848,999,19484,.76240362E-4,.13E-5,0
APRIZESAT 4,2009-041D,2026-07-12T00:06:07.256160,14.83911189,.004207,98.1404,268.8187,240.1403,119.5627,0,U,35684,999,91504,.49734E-4,.36E-5,0
APRIZESAT 3,2009-041F,2026-07-12T02:37:45.242688,14.96304711,.006099,98.2092,347.5321,346.1133,13.8407,0,U,35686,999,92010,.96411E-4,.1061E-4,0
PROBA-2,2009-059B,2026-07-11T10:47:08.882304,14.54872679,.00127423,98.2457,15.4667,200.5903,159.4782,0,U,36037,999,88505,.34680705E-4,.104E-5,0
APRIZESAT 5,2011-044E,2026-07-11T19:13:23.105568,14.81124114,.00507399,98.2450,126.5399,283.9299,75.6273,0,U,37792,999,80243,.6464032E-4,.453E-5,0
APRIZESAT 6,2011-044F,2026-07-11T17:43:11.020800,14.76953608,.00433395,98.2343,103.7374,9.2855,45.5114,0,U,37793,999,80077,.63523811E-4,.397E-5,0
PROBA-V,2013-021A,2026-07-11T20:37:26.291712,14.23603107,.00053448,98.3603,170.2499,67.7410,292.4336,0,U,39159,999,68462,.36883502E-4,.43E-6,0
APRIZESAT 7,2013-066A,2026-07-12T02:37:23.539008,14.91615343,.0037032,97.7721,145.9732,127.1953,233.2655,0,U,39416,999,68494,.568E-4,.52E-5,0
APRIZESAT 8,2013-066K,2026-07-11T19:49:31.312704,14.87693219,.00452185,97.8228,139.9521,203.0906,156.8279,0,U,39425,999,68333,.51745482E-4,.423E-5,0
BUGSAT-1 (TITA),2014-033E,2026-07-12T04:31:29.040384,15.15863043,.0029116,98.0437,287.2036,95.6437,264.8115,0,U,40014,999,65962,.196E-3,.3713E-4,0
SAUDISAT 4,2014-033G,2026-07-11T20:54:11.368224,14.79573545,.00445327,97.7612,338.1563,354.9490,5.1267,0,U,40016,999,64972,.42891132E-4,.274E-5,0
APRIZESAT 9,2014-033J,2026-07-11T20:17:47.031072,14.74249965,.00673381,97.9089,325.4456,120.4864,240.3018,0,U,40018,999,64719,.62796476E-4,.378E-5,0
APRIZESAT 10,2014-033K,2026-07-11T19:41:32.997120,14.70908468,.00784548,97.9677,319.2345,194.1474,165.7536,0,U,40019,999,64587,.59735372E-4,.33E-5,0
TECHDEMOSAT-1 (TDS-1),2014-037H,2026-07-11T21:14:40.079904,15.13649220,.0006572,98.3822,187.5538,169.0701,191.0671,0,U,40076,999,65196,.24189E-3,.4272E-4,0
TECHNOSAT,2017-042E,2026-07-11T18:46:45.686208,15.05098506,.00177366,97.4306,349.5090,14.3873,345.7855,0,U,42829,999,49040,.16562073E-3,.2304E-4,0
FLYING LAPTOP,2017-042G,2026-07-12T04:20:21.513984,15.01300056,.0019827,97.4789,347.7711,42.0714,318.2029,0,U,42831,999,49020,.16362E-3,.2055E-4,0
HAWK-A,2018-099H,2026-07-11T22:58:48.914112,15.24938254,.0034381,97.3904,244.8727,195.3513,164.6685,0,U,43765,999,41687,.17431E-3,.4339E-4,0
HAWK-B,2018-099AN,2026-07-12T01:47:13.087392,15.23092911,.0031085,97.3952,244.3505,213.2280,146.7006,0,U,43794,999,41682,.15858E-3,.3716E-4,0
HAWK-C,2018-099AT,2026-07-12T00:12:15.219072,15.28458113,.0039979,97.3883,245.9582,195.1149,164.8899,0,U,43799,999,41770,.17834E-3,.4979E-4,0
SALSAT,2020-068K,2026-07-11T12:58:29.571456,15.30139435,.00088233,97.8855,197.0941,206.5203,153.5586,0,U,46495,999,31908,.15528118E-3,.4447E-4,0
HAWK-2C,2021-006CT,2026-07-12T04:30:32.130432,15.34964737,.0008605,97.2270,237.0013,109.3431,250.8744,0,U,47502,999,30333,.1193E-3,.3972E-4,0
HAWK-2A,2021-006CW,2026-07-12T04:33:46.832832,15.34979714,.0008117,97.2312,237.6959,112.5807,247.6296,0,U,47505,999,30333,.12009E-3,.4E-4,0
HAWK-2B,2021-006CZ,2026-07-11T17:27:45.553248,15.35104016,.00086672,97.2184,235.5351,112.2337,247.9827,0,U,47508,999,30326,.13734459E-3,.4605E-4,0
HAWK-3B,2021-059BE,2026-07-12T01:03:47.368800,15.71662815,.0004226,97.6641,32.1420,209.9705,150.1316,0,U,48931,999,28175,.2451E-3,.3146E-3,0
HAWK-3C,2021-059BX,2026-07-11T12:49:51.971520,15.71633627,.00042487,97.6752,37.3098,211.5765,148.5243,0,U,48948,999,28167,.24970301E-3,.32017E-3,0
HAWK-3A,2021-059CG,2026-07-11T12:49:42.274848,15.71633774,.00043521,97.6700,34.4950,212.7236,147.3758,0,U,48957,999,28167,.25470839E-3,.32665E-3,0
HAWK-5C,2022-057Y,2026-07-12T04:36:45.374112,15.52254010,.000313,97.6605,354.4916,358.8809,1.2435,0,U,52754,999,23022,.18323E-3,.11021E-3,0
HAWK-5B,2022-057AA,2026-07-12T04:36:29.051424,15.52251970,.0003753,97.6621,352.8444,344.8890,15.2249,0,U,52756,999,23022,.18153E-3,.10918E-3,0
